[{"OBJECT_NAME":"NEONSAT-1A","OBJECT_ID":"2026-019A","EPOCH":"2026-03-09T21:53:31.879392","MEAN_MOTION":15.0780294,"ECCENTRICITY":0.00137261,"INCLINATION":97.411,"RA_OF_ASC_NODE":192.4819,"ARG_OF_PERICENTER":167.4713,"MEAN_ANOMALY":192.686,"EPHEMERIS_TYPE":0,"CLASSIFICATION_TYPE":"U","NORAD_CAT_ID":67614,"ELEMENT_SET_NO":999,"REV_AT_EPOCH":585,"BSTAR":0.00027109929,"MEAN_MOTION_DOT":4.096e-5,"MEAN_MOTION_DDOT":0},{"OBJECT_NAME":"OBJECT D","OBJECT_ID":"2018-099D","EPOCH":"2026-03-09T21:55:11.400096","MEAN_MOTION":15.0608919,"ECCENTRICITY":0.00104801,"INCLINATION":97.4323,"RA_OF_ASC_NODE":113.3477,"ARG_OF_PERICENTER":333.2621,"MEAN_ANOMALY":26.8065,"EPHEMERIS_TYPE":0,"CLASSIFICATION_TYPE":"U","NORAD_CAT_ID":43761,"ELEMENT_SET_NO":999,"REV_AT_EPOCH":39716,"BSTAR":0.0002280609,"MEAN_MOTION_DOT":3.276e-5,"MEAN_MOTION_DDOT":0}]
